CCSDS_OEM_VERS = 2.0
CREATION_DATE  = 2025-08-14T04:44:58.563
ORIGINATOR     = NASA/JSC/FOD/TOPO

META_START
OBJECT_NAME          = ISS
OBJECT_ID            = 1998-067-A
CENTER_NAME          = Earth
REF_FRAME            = EME2000
TIME_SYSTEM          = UTC
START_TIME           = 2025-08-13T12:00:00.000
USEABLE_START_TIME   = 2025-08-13T12:00:00.000
USEABLE_STOP_TIME    = 2025-08-28T12:00:00.000
STOP_TIME            = 2025-08-28T12:00:00.000
META_STOP

COMMENT Source: This file was produced by the TOPO office within FOD at JSC.
COMMENT Units are in kg and m^2
COMMENT MASS=454860.00
COMMENT DRAG_AREA=1526.60
COMMENT DRAG_COEFF=1.50
COMMENT SOLAR_RAD_AREA=0.00
COMMENT SOLAR_RAD_COEFF=0.00
COMMENT Orbits start at the ascending node epoch
COMMENT ISS first asc. node: EPOCH = 2025-08-13T12:07:53.767 $ ORBIT = 405 $ LAN(DEG) = -121.19604
COMMENT ISS last asc. node : EPOCH = 2025-08-28T11:05:37.374 $ ORBIT = 637 $ LAN(DEG) = 165.51484
COMMENT Begin sequence of events
COMMENT TRAJECTORY EVENT SUMMARY:
COMMENT 
COMMENT |       EVENT        |       TIG        | ORB |   DV    |   HA    |   HP    |
COMMENT |                    |       GMT        |     |   M/S   |   KM    |   KM    |
COMMENT |                    |                  |     |  (F/S)  |  (NM)   |  (NM)   |
COMMENT =============================================================================
COMMENT  GMT226 Reboost Optio  226:04:28:00.000             1.0     420.7     409.3
COMMENT                                                    (3.3)   (227.2)   (221.0)
COMMENT 
COMMENT  SpX-33 Launch         233:07:55:56.000             0.0     420.0     412.5
COMMENT                                                    (0.0)   (226.8)   (222.7)
COMMENT 
COMMENT  SpX-33 Docking        234:12:22:48.000             0.0     419.8     412.3
COMMENT                                                    (0.0)   (226.7)   (222.6)
COMMENT 
COMMENT =============================================================================
COMMENT End sequence of events
2025-08-19T19:42:00.000 6275.023195423590 -2142.465708132640 -1496.449752955040 2.80326892151371 4.19332799861236 5.76373823719490
2025-08-19T19:46:00.000 6711.368446437030 -1070.365843906450 -75.433092789209 0.81050128922184 4.68633769697576 6.00556674899581
2025-08-19T19:50:00.000 6659.251952788650 79.641025232823 1351.073308749410 -1.24224392364292 4.83849605719295 5.80912437601976
2025-08-19T19:54:00.000 6122.339062730070 1223.863114968240 2678.934417184830 -3.20462607627445 4.63841985719113 5.18858805383829
2025-08-19T19:58:00.000 5139.789556280010 2279.017926949180 3811.245414404930 -4.93313462770149 4.10086599192731 4.18960635336606
2025-08-19T20:02:00.000 3783.278655271870 3168.378836535610 4665.477336450490 -6.30198215812664 3.26528621527805 2.88551079534695
2025-08-19T20:06:00.000 2151.633454208610 3827.343754668380 5179.465245748970 -7.21201783689918 2.19262943873741 1.37159538562769
2025-08-19T20:10:00.000 363.567566870707 4208.073784243700 5315.849333881240 -7.59760438540201 0.96076401017798 -0.24200970496700
2025-08-19T20:14:00.000 -1450.925365688650 4282.890349972020 5064.691767416220 -7.43087127397943 -0.34118307145755 -1.83826043672158
2025-08-19T20:18:00.000 -3159.892068410150 4046.241727495590 4444.172496202020 -6.72347559582587 -1.61897828552865 -3.30122102708879
2025-08-19T20:22:00.000 -4638.904772849170 3515.161494070670 3499.349553796180 -5.52617207049891 -2.77978558985628 -4.52420179587050
2025-08-19T20:26:00.000 -5780.110349239360 2728.121321868120 2298.995138122190 -3.92558028503195 -3.73886714566124 -5.41749245854824
2025-08-19T20:30:00.000 -6500.197215691790 1742.324246970680 930.674786973671 -2.03838927918107 -4.42587904476814 -5.91524229761301
2025-08-19T20:34:00.000 -6746.642109104540 629.565972679720 -505.654828885063 -0.00288663976264 -4.79036585458199 -5.98074862529742
2025-08-19T20:38:00.000 -6501.672815318490 -529.059476202518 -1905.058332939830 2.03151240514519 -4.80583033154982 -5.60952120540272
2025-08-19T20:42:00.000 -5783.545285047010 -1649.200543020830 -3165.445175405860 3.91594867167917 -4.47175957483595 -4.82955442439977
2025-08-19T20:46:00.000 -4645.029750892670 -2649.492729985980 -4195.115462036520 5.51347116023848 -3.81333012080806 -3.69881756478541
2025-08-19T20:50:00.000 -3169.320191746120 -3457.480452831430 -4919.415386184460 6.70898540290247 -2.87907936992270 -2.30043253669772
2025-08-19T20:54:00.000 -1463.798730669980 -4014.789286608140 -5286.024118768780 7.41714905331067 -1.73703843927745 -0.73618196425820
2025-08-19T20:58:00.000 347.798126413023 -4281.203823203910 -5268.541378841510 7.58767755257878 -0.46959876150024 0.88096284702626
2025-08-19T21:02:00.000 2134.196594225180 -4237.444808007570 -4868.267704291590 7.20839267668685 0.83215197267130 2.43443575061331
2025-08-19T21:06:00.000 3765.882570682160 -3886.529127732270 -4114.113770168010 6.30606575080331 2.07454824948986 3.81203853106203
2025-08-19T21:10:00.000 5124.312328222830 -3253.629134565540 -3060.624392067000 4.94492315902812 3.16769371911490 4.91359888860439
2025-08-19T21:14:00.000 6110.493686733910 -2384.396518181040 -1784.204903501960 3.22279192260891 4.03187509930524 5.65828345963574
2025-08-19T21:18:00.000 6652.315385564590 -1341.786847013190 -377.697716994521 1.26455673411944 4.60354795686857 5.99086790927965
2025-08-19T21:22:00.000 6710.011515461580 -201.543554259335 1056.356052851180 -0.78680462000354 4.84042982540696 5.88634733048431
2025-08-19T21:26:00.000 6279.224902097820 953.363883635711 2413.287036860600 -2.78111696697401 4.72498896752206 5.35212018493321
2025-08-19T21:30:00.000 5391.351325184400 2038.876465140580 3594.056831574500 -4.57250309148149 4.26571293816808 4.42739749010160
2025-08-19T21:34:00.000 4111.175259017690 2976.041514354250 4512.570381566920 -6.03035190352470 3.49638389698259 3.18012738870424
2025-08-19T21:38:00.000 2531.997680884060 3696.785073701850 5101.971262060470 -7.04907712366562 2.47321662061350 1.70157120391480
2025-08-19T21:42:00.000 768.732201527595 4148.785268675860 5319.404172104100 -7.55512255579922 1.27047835809226 0.09930415060774
2025-08-19T21:46:00.000 -1050.415382800380 4299.196054969480 5149.045384187800 -7.51191848078929 -0.02476601007668 -1.51034213935986
2025-08-19T21:50:00.000 -2793.173089971050 4136.994872501350 4603.217253441590 -6.92233291345056 -1.31878879581072 -3.01052458118093
2025-08-19T21:54:00.000 -4332.698507902920 3673.804708865970 3721.532718986300 -5.82852913021812 -2.51768776913530 -4.29198627392228
2025-08-19T21:58:00.000 -5556.762586358720 2943.144451023950 2568.131315250270 -4.30948394568060 -3.53402336644678 -5.26085668233874
2025-08-19T22:02:00.000 -6376.014536011240 1998.088310464860 1227.116089309360 -2.47578249947774 -4.29330447944792 -5.84574571236243
2025-08-19T22:06:00.000 -6730.671458347800 907.445254866657 -203.570328924418 -0.46170334833649 -4.73977910210024 -6.00350030868300
2025-08-19T22:10:00.000 -6595.022436181160 -249.306374486063 -1619.394562785540 1.58492993633671 -4.84087844635957 -5.72273764690032
2025-08-19T22:14:00.000 -5979.318167906370 -1387.925672766680 -2917.022696318880 3.51421631087469 -4.58971933249701 -5.02473986634591
2025-08-19T22:18:00.000 -4928.877405502370 -2425.655607259330 -4001.981848242750 5.18568829010282 -4.00541988691357 -3.96152701797084
2025-08-19T22:22:00.000 -3520.538597083480 -3287.281267338940 -4795.550071819750 6.47872198652823 -3.13123562571376 -2.61141760124730
2025-08-19T22:26:00.000 -1856.858446594690 -3910.517726190970 -5240.348822470180 7.30080338575928 -2.03094121180377 -1.07282718283046
2025-08-19T22:30:00.000 -58.605886105975 -4250.377587271950 -5304.322981466210 7.59348738880500 -0.78404362880853 0.54289961928385
2025-08-19T22:34:00.000 1743.895629971420 -4282.293150411120 -4982.906742277320 7.33597661294088 0.51978697015220 2.11934227387444
2025-08-19T22:38:00.000 3419.991441034460 -4003.832083951870 -4299.312121865140 6.54635670974238 1.78678734368285 3.54271862547941
2025-08-19T22:42:00.000 4847.975185719640 -3434.927122278470 -3302.960069459860 5.28075103707072 2.92542721699025 4.70971222273006
2025-08-19T22:46:00.000 5923.853376399860 -2616.567286869400 -2066.064981834500 3.62989043907416 3.85280958273714 5.53484235362388
2025-08-19T22:50:00.000 6569.011767097050 -1607.979583198990 -678.548662955456 1.71332249690740 4.50085857320527 5.95705061979924
2025-08-19T22:54:00.000 6736.144306840930 -482.395622696720 758.470082068617 -0.32921092624994 4.82171440118978 5.94472633410611
2025-08-19T22:58:00.000 6412.878801275430 678.295425159111 2140.111813329380 -2.34819247627037 4.79159689385981 5.49838359387864
2025-08-19T23:02:00.000 5622.756781567310 1789.602299655110 3365.515241918140 -4.19581001555448 4.41272946725158 4.65079211266139
2025-08-19T23:06:00.000 4423.444500488380 2770.675021655480 4345.310765286310 -5.73727561763314 3.71301500105891 3.46426634187961
2025-08-19T23:10:00.000 2902.388141515050 3550.227982440280 5008.156765957890 -6.86074221863602 2.74368186269373 2.02575147217693
2025-08-19T23:14:00.000 1170.309433034150 4071.674155758490 5305.864899067620 -7.48515653810263 1.57522033937103 0.44000482676828
2025-08-19T23:18:00.000 -646.851973633325 4297.146473992500 5216.779446427020 -7.56543949831231 0.29219885966984 -1.17790246438532
2025-08-19T23:22:00.000 -2416.977968463280 4210.184669950850 4747.312010910520 -7.09550980238224 -1.01257280771870 -2.71050541870621
2025-08-19T23:26:00.000 -4011.265455450640 3816.954819015360 3931.522599837440 -6.10894748598176 -2.24447166951838 -4.04625317327048
2025-08-19T23:30:00.000 -5313.541236592550 3145.875109930190 2828.730088196300 -4.67685295329011 -3.31379315243767 -5.08746239328214
2025-08-19T23:34:00.000 -6228.766392621800 2245.651170257240 1519.308160834380 -2.90327413049573 -4.14223528331403 -5.75749308887951
